STARLINK-1202           
1 45183U 20012F   26068.29662031 -.00000628  00000+0 -90785-5 0  9998
2 45183  53.1616  41.0757 0001576  83.8145 276.3036 15.30193024334899
STARLINK-1559           
1 46077U 20055BC  26068.23360559  .00042685  00000+0  14779-2 0  9995
2 46077  53.0254  76.0659 0004229  33.9710 326.1559 15.29461733309518
